NORAD_CAT_ID,OBJECT_NAME,OBJECT_TYPE,EPOCH,MEAN_MOTION,ECCENTRICITY,INCLINATION,RA_OF_ASC_NODE,ARG_OF_PERICENTER,MEAN_ANOMALY,BSTAR,MEAN_MOTION_DOT,MEAN_MOTION_DDOT,TLE_LINE0,TLE_LINE1,TLE_LINE2,SEMIMAJOR_AXIS,PERIOD,APOGEE,PERIGEE,DECAYED
53776.0,STARLINK-4708,PAYLOAD,2024-04-22 04:16:02,15.08835754,0.0001183,53.2159,121.155,92.0885,268.0243,-5.8347e-05,-1.216e-05,0.0,0 STARLINK-4708,1 53776U 22111D   24113.17780378 -.00001216  00000-0 -58347-4 0  9990,2 53776  53.2159 121.1550 0001183  92.0885 268.0243 15.08835754 89171,6917.893,95.438,540.577,538.94,0.0
53776.0,STARLINK-4708,PAYLOAD,2024-04-22 10:37:34,15.08839317,0.0001202,53.2159,119.9669,87.8518,272.2612,-1.9302e-05,-5.95e-06,0.0,0 STARLINK-4708,1 53776U 22111D   24113.44276117 -.00000595  00000-0 -19302-4 0  9998,2 53776  53.2159 119.9669 0001202  87.8518 272.2612 15.08839317 90307,6917.882,95.438,540.579,538.916,0.0
53776.0,STARLINK-4708,PAYLOAD,2024-04-23 07:17:35,15.08829575,0.0001171,53.2162,116.101,89.8573,270.2553,9.8088e-05,1.273e-05,0.0,0 STARLINK-4708,1 53776U 22111D   24114.30388518  .00001273  00000-0  98088-4 0  9993,2 53776  53.2162 116.1010 0001171  89.8573 270.2553 15.08829575 89347,6917.912,95.438,540.587,538.967,0.0
53776.0,STARLINK-4708,PAYLOAD,2024-04-24 10:19:09,15.08837294,0.0001194,53.2158,111.046,94.6284,265.4845,1.5936e-05,-3.4e-07,0.0,0 STARLINK-4708,1 53776U 22111D   24115.42996736 -.00000034  00000-0  15936-4 0  9990,2 53776  53.2158 111.0460 0001194  94.6284 265.4845 15.08837294 89519,6917.889,95.438,540.58,538.928,0.0
53776.0,STARLINK-4708,PAYLOAD,2024-04-25 08:34:32,15.08839127,0.0001235,53.2162,106.8826,86.7381,273.3753,4.1996e-05,3.81e-06,0.0,0 STARLINK-4708,1 53776U 22111D   24116.35732630  .00000381  00000-0  41996-4 0  9993,2 53776  53.2162 106.8826 0001235  86.7381 273.3753 15.08839127 90748,6917.883,95.438,540.602,538.894,0.0
53776.0,STARLINK-4708,PAYLOAD,2024-04-26 05:14:35,15.08822758,0.0001466,53.2165,103.0179,77.9628,282.1529,-8.4225e-05,-1.627e-05,0.0,0 STARLINK-4708,1 53776U 22111D   24117.21846788 -.00001627  00000-0 -84225-4 0  9997,2 53776  53.2165 103.0179 0001466  77.9628 282.1529 15.08822758 89786,6917.933,95.439,540.812,538.784,0.0
53776.0,STARLINK-4708,PAYLOAD,2024-04-26 08:25:21,15.08825775,0.000151,53.2169,102.4226,77.5125,282.6036,-5.4903e-05,-1.161e-05,0.0,0 STARLINK-4708,1 53776U 22111D   24117.35094630 -.00001161  00000-0 -54903-4 0  9996,2 53776  53.2169 102.4226 0001510  77.5125 282.6036 15.08825775 90898,6917.924,95.438,540.833,538.744,0.0
53776.0,STARLINK-4708,PAYLOAD,2024-04-26 16:22:17,15.08829655,0.0001264,53.2161,100.9365,98.4488,261.6647,-2.6447e-05,-7.09e-06,0.0,0 STARLINK-4708,1 53776U 22111D   24117.68214376 -.00000709  00000-0 -26447-4 0  9992,2 53776  53.2161 100.9365 0001264  98.4488 261.6647 15.08829655 89857,6917.912,95.438,540.651,538.903,0.0
53776.0,STARLINK-4708,PAYLOAD,2024-04-27 05:05:21,15.08837692,0.0001195,53.2158,98.5574,92.703,267.4099,1.0107e-05,-1.27e-06,0.0,0 STARLINK-4708,1 53776U 22111D   24118.21206000 -.00000127  00000-0  10107-4 0  9996,2 53776  53.2158  98.5574 0001195  92.7030 267.4099 15.08837692 89934,6917.887,95.438,540.579,538.926,0.0
53776.0,STARLINK-4708,PAYLOAD,2024-04-27 08:16:07,15.08841123,0.000134,53.216,97.9625,106.3035,253.8104,4.7634e-05,4.7e-06,0.0,0 STARLINK-4708,1 53776U 22111D   24118.34453651  .00000470  00000-0  47634-4 0  9991,2 53776  53.2160  97.9625 0001340 106.3035 253.8104 15.08841123 91041,6917.877,95.437,540.669,538.815,0.0
53776.0,STARLINK-4708,PAYLOAD,2024-04-27 16:13:03,15.08846205,0.0001381,53.2163,96.4765,91.0474,269.0676,5.9702e-05,6.63e-06,0.0,0 STARLINK-4708,1 53776U 22111D   24118.67573288  .00000663  00000-0  59702-4 0  9999,2 53776  53.2163  96.4765 0001381  91.0474 269.0676 15.08846205 90009,6917.861,95.437,540.682,538.771,0.0
53776.0,STARLINK-4708,PAYLOAD,2024-04-28 08:06:54,15.08847663,0.0001391,53.2164,93.5022,90.8505,269.2647,0.00019097,2.753e-05,0.0,0 STARLINK-4708,1 53776U 22111D   24119.33812737  .00002753  00000-0  19097-3 0  9992,2 53776  53.2164  93.5022 0001391  90.8505 269.2647 15.08847663 91197,6917.857,95.437,540.684,538.76,0.0
53776.0,STARLINK-4708,PAYLOAD,2024-04-29 04:46:55,15.08842727,0.0001309,53.2161,89.6367,85.8822,274.232,-4.1508e-05,-9.48e-06,0.0,0 STARLINK-4708,1 53776U 22111D   24120.19925617 -.00000948  00000-0 -41508-4 0  9999,2 53776  53.2161  89.6367 0001309  85.8822 274.2320 15.08842727 90231,6917.872,95.437,540.643,538.832,0.0
53776.0,STARLINK-4708,PAYLOAD,2024-04-29 07:57:41,15.08843396,0.0001311,53.216,89.0419,85.6718,274.4424,-3.503e-05,-8.45e-06,0.0,0 STARLINK-4708,1 53776U 22111D   24120.33173501 -.00000845  00000-0 -35030-4 0  9991,2 53776  53.2160  89.0419 0001311  85.6718 274.4424 15.08843396 91340,6917.87,95.437,540.642,538.828,0.0
53776.0,STARLINK-4708,PAYLOAD,2024-04-29 22:16:10,15.08842339,0.0001393,53.2171,86.3654,88.0071,272.1081,-7.849e-05,-1.537e-05,0.0,0 STARLINK-4708,1 53776U 22111D   24120.92789572 -.00001537  00000-0 -78490-4 0  9993,2 53776  53.2171  86.3654 0001393  88.0071 272.1081 15.08842339 91432,6917.873,95.437,540.702,538.775,0.0
53776.0,STARLINK-4708,PAYLOAD,2024-04-30 14:10:01,15.08842915,0.0001417,53.2171,83.3916,86.365,273.7504,-2.4139e-05,-6.72e-06,0.0,0 STARLINK-4708,1 53776U 22111D   24121.59029161 -.00000672  00000-0 -24139-4 0  9998,2 53776  53.2171  83.3916 0001417  86.3650 273.7504 15.08842915 91539,6917.871,95.437,540.717,538.756,0.0
53776.0,STARLINK-4708,PAYLOAD,2024-04-30 22:06:57,15.08834466,0.0001528,53.2176,81.9058,89.1047,271.012,1.2457e-05,-9e-07,0.0,0 STARLINK-4708,1 53776U 22111D   24121.92149529 -.00000090  00000-0  12457-4 0  9999,2 53776  53.2176  81.9058 0001528  89.1047 271.0120 15.08834466 91581,6917.897,95.438,540.819,538.705,0.0
53776.0,STARLINK-4708,PAYLOAD,2024-05-01 04:28:29,15.0883441,0.0001518,53.2175,80.7162,88.8502,271.2664,1.0974e-05,-1.13e-06,0.0,0 STARLINK-4708,1 53776U 22111D   24122.18645618 -.00000113  00000-0  10974-4 0  9996,2 53776  53.2175  80.7162 0001518  88.8502 271.2664 15.08834410 90532,6917.897,95.438,540.813,538.712,0.0
53776.0,STARLINK-4708,PAYLOAD,2024-05-01 14:00:48,15.08837371,0.0001524,53.218,78.9316,87.6339,272.4828,1.8984e-05,1.4e-07,0.0,0 STARLINK-4708,1 53776U 22111D   24122.58389466  .00000014  00000-0  18984-4 0  9994,2 53776  53.2180  78.9316 0001524  87.6339 272.4828 15.08837371 91681,6917.888,95.438,540.808,538.699,0.0
53776.0,STARLINK-4708,PAYLOAD,2024-05-01 20:22:21,15.08837595,0.0001516,53.218,77.7423,91.009,269.1076,3.3432e-05,2.44e-06,0.0,0 STARLINK-4708,1 53776U 22111D   24122.84885424  .00000244  00000-0  33432-4 0  9998,2 53776  53.2180  77.7423 0001516  91.0090 269.1076 15.08837595 91722,6917.888,95.438,540.801,538.704,0.0
53776.0,STARLINK-4708,PAYLOAD,2024-05-02 05:54:39,15.08839689,0.0001513,53.2177,75.9584,92.3281,267.7884,2.2533e-05,7.1e-07,0.0,0 STARLINK-4708,1 53776U 22111D   24123.24629357  .00000071  00000-0  22533-4 0  9992,2 53776  53.2177  75.9584 0001513  92.3281 267.7884 15.08839689 90691,6917.881,95.438,540.793,538.7,0.0
53776.0,STARLINK-4708,PAYLOAD,2024-05-02 13:51:35,15.08840949,0.0001506,53.2178,74.471,87.6967,272.4198,2.5452e-05,1.17e-06,0.0,0 STARLINK-4708,1 53776U 22111D   24123.57749253  .00000117  00000-0  25452-4 0  9990,2 53776  53.2178  74.4710 0001506  87.6967 272.4198 15.08840949 91836,6917.877,95.437,540.784,538.701,0.0
53776.0,STARLINK-4708,PAYLOAD,2024-05-03 13:42:22,15.0884076,0.0001501,53.2172,70.01,87.0037,273.1127,2.7007e-05,1.42e-06,0.0,0 STARLINK-4708,1 53776U 22111D   24124.57109319  .00000142  00000-0  27007-4 0  9990,2 53776  53.2172  70.0100 0001501  87.0037 273.1127 15.08840760 91989,6917.878,95.438,540.781,538.705,0.0
53776.0,STARLINK-4708,PAYLOAD,2024-05-04 19:54:42,15.08837691,0.0001501,53.2172,64.3603,88.7466,271.3698,3.0789e-05,2.02e-06,0.0,0 STARLINK-4708,1 53776U 22111D   24125.82965457  .00000202  00000-0  30789-4 0  9990,2 53776  53.2172  64.3603 0001501  88.7466 271.3698 15.08837691 91080,6917.887,95.438,540.791,538.714,0.0
53776.0,STARLINK-4708,PAYLOAD,2024-05-05 05:27:00,15.08839216,0.0001492,53.2175,62.5759,89.8966,270.2198,1.1637e-05,-1.03e-06,0.0,0 STARLINK-4708,1 53776U 22111D   24126.22709462 -.00000103  00000-0  11637-4 0  9999,2 53776  53.2175  62.5759 0001492  89.8966 270.2198 15.08839216 92237,6917.883,95.438,540.78,538.716,0.0
53776.0,STARLINK-4708,PAYLOAD,2024-05-05 22:56:15,15.08838695,0.000149,53.2178,59.3048,90.1786,269.9377,2.0133e-05,3.2e-07,0.0,0 STARLINK-4708,1 53776U 22111D   24126.95573432  .00000032  00000-0  20133-4 0  9996,2 53776  53.2178  59.3048 0001490  90.1786 269.9377 15.08838695 92344,6917.884,95.438,540.78,538.719,0.0
53776.0,STARLINK-4708,PAYLOAD,2024-05-06 02:07:01,15.08838659,0.0001486,53.2178,58.7101,90.1813,269.9349,1.9572e-05,2.4e-07,0.0,0 STARLINK-4708,1 53776U 22111D   24127.08821439  .00000024  00000-0  19572-4 0  9990,2 53776  53.2178  58.7101 0001486  90.1813 269.9349 15.08838659 91273,6917.884,95.438,540.777,538.721,0.0
53776.0,STARLINK-4708,PAYLOAD,2024-05-06 05:17:47,15.08839208,0.0001502,53.218,58.1155,90.5705,269.5459,1.3929e-05,-6.6e-07,0.0,0 STARLINK-4708,1 53776U 22111D   24127.22069436 -.00000066  00000-0  13929-4 0  9994,2 53776  53.2180  58.1155 0001502  90.5705 269.5459 15.08839208 92384,6917.883,95.438,540.787,538.709,0.0
53776.0,STARLINK-4708,PAYLOAD,2024-05-06 22:47:02,15.0883767,0.0001479,53.218,54.8444,90.4799,269.6362,7.8942e-06,-1.62e-06,0.0,0 STARLINK-4708,1 53776U 22111D   24127.94933563 -.00000162  00000-0  78942-5 0  9998,2 53776  53.2180  54.8444 0001479  90.4799 269.6362 15.08837670 92490,6917.888,95.438,540.776,538.729,0.0
53776.0,STARLINK-4708,PAYLOAD,2024-05-07 11:30:07,15.08839324,0.0001463,53.2181,52.4652,90.3675,269.7484,1.2413e-05,-9e-07,0.0,0 STARLINK-4708,1 53776U 22111D   24128.47925473 -.00000090  00000-0  12413-4 0  9998,2 53776  53.2181  52.4652 0001463  90.3675 269.7484 15.08839324 91483,6917.882,95.438,540.76,538.735,0.0
